[ {"CCSDS_OMM_VERS": "2.0", "COMMENT": "GENERATED VIA SPACE-TRACK.ORG API", "CREATION_DATE": "2021-12-06T02:57:56", "ORIGINATOR": "18 SPCS", "OBJECT_NAME": "PSLV R/B", "OBJECT_ID": "2007-001E", "CENTER_NAME": "EARTH", "REF_FRAME": "TEME", "TIME_SYSTEM": "UTC", "MEAN_ELEMENT_THEORY": "SGP4", "EPOCH": "2021-12-05T22:54:47.217888", "MEAN_MOTION": "14.85932782", "ECCENTRICITY": "0.00255440", "INCLINATION": "97.9818", "RA_OF_ASC_NODE": "315.6027", "ARG_OF_PERICENTER": "145.0498", "MEAN_ANOMALY": "215.2400", "EPHEMERIS_TYPE": "0", "CLASSIFICATION_TYPE": "U", "NORAD_CAT_ID": "29713", "ELEMENT_SET_NO": "999", "REV_AT_EPOCH": "80635", "BSTAR": "0.00005035000000", "MEAN_MOTION_DOT": "0.00000385", "MEAN_MOTION_DDOT": "0.0000000000000", "SEMIMAJOR_AXIS": "6988.797", "PERIOD": "96.909", "APOAPSIS": "628.514", "PERIAPSIS": "592.809", "OBJECT_TYPE": "ROCKET BODY", "RCS_SIZE": "LARGE", "COUNTRY_CODE": "IND", "LAUNCH_DATE": "2007-01-10", "SITE": "SRI", "DECAY_DATE": null, "FILE": "3233515", "GP_ID": "191156876", "TLE_LINE0": "0 PSLV R/B", "TLE_LINE1": "1 29713U 07001E   21339.95471317  .00000385  00000-0  50350-4 0  9998", "TLE_LINE2": "2 29713  97.9818 315.6027 0025544 145.0498 215.2400 14.85932782806356"}, {"CCSDS_OMM_VERS": "2.0", "COMMENT": "GENERATED VIA SPACE-TRACK.ORG API", "CREATION_DATE": "2021-12-05T02:31:33", "ORIGINATOR": "18 SPCS", "OBJECT_NAME": "CZ-3A R/B", "OBJECT_ID": "2007-003B", "CENTER_NAME": "EARTH", "REF_FRAME": "TEME", "TIME_SYSTEM": "UTC", "MEAN_ELEMENT_THEORY": "SGP4", "EPOCH": "2021-12-04T00:36:00.935712", "MEAN_MOTION": "4.18399808", "ECCENTRICITY": "0.59194740", "INCLINATION": "24.5176", "RA_OF_ASC_NODE": "289.5022", "ARG_OF_PERICENTER": "243.4926", "MEAN_ANOMALY": "45.4650", "EPHEMERIS_TYPE": "0", "CLASSIFICATION_TYPE": "U", "NORAD_CAT_ID": "30324", "ELEMENT_SET_NO": "999", "REV_AT_EPOCH": "16233", "BSTAR": "0.00040199000000", "MEAN_MOTION_DOT": "0.00003289", "MEAN_MOTION_DDOT": "0.0000000000000", "SEMIMAJOR_AXIS": "16268.251", "PERIOD": "344.168", "APOAPSIS": "19520.064", "PERIAPSIS": "260.167", "OBJECT_TYPE": "ROCKET BODY", "RCS_SIZE": "LARGE", "COUNTRY_CODE": "PRC", "LAUNCH_DATE": "2007-02-02", "SITE": "XSC", "DECAY_DATE": null, "FILE": "3232651", "GP_ID": "191090463", "TLE_LINE0": "0 CZ-3A R/B", "TLE_LINE1": "1 30324U 07003B   21338.02501083  .00003289  00000-0  40199-3 0  9996", "TLE_LINE2": "2 30324  24.5176 289.5022 5919474 243.4926  45.4650  4.18399808162335"}, {"CCSDS_OMM_VERS": "2.0", "COMMENT": "GENERATED VIA SPACE-TRACK.ORG API", "CREATION_DATE": "2021-12-05T20:11:25", "ORIGINATOR": "18 SPCS", "OBJECT_NAME": "ARIANE 5 DEB (SYLDA)", "OBJECT_ID": "2007-063D", "CENTER_NAME": "EARTH", "REF_FRAME": "TEME", "TIME_SYSTEM": "UTC", "MEAN_ELEMENT_THEORY": "SGP4", "EPOCH": "2021-12-05T12:53:36.539808", "MEAN_MOTION": "2.26250058", "ECCENTRICITY": "0.71548210", "INCLINATION": "5.9278", "RA_OF_ASC_NODE": "74.3607", "ARG_OF_PERICENTER": "67.5393", "MEAN_ANOMALY": "7.1989", "EPHEMERIS_TYPE": "0", "CLASSIFICATION_TYPE": "U", "NORAD_CAT_ID": "32390", "ELEMENT_SET_NO": "999", "REV_AT_EPOCH": "11517", "BSTAR": "-0.00166360000000", "MEAN_MOTION_DOT": "-0.00000202", "MEAN_MOTION_DDOT": "0.0000000000000", "SEMIMAJOR_AXIS": "24509.966", "PERIOD": "636.464", "APOAPSIS": "35668.273", "PERIAPSIS": "595.389", "OBJECT_TYPE": "DEBRIS", "RCS_SIZE": "LARGE", "COUNTRY_CODE": "FR", "LAUNCH_DATE": "2007-12-21", "SITE": "FRGUI", "DECAY_DATE": null, "FILE": "3233179", "GP_ID": "191129561", "TLE_LINE0": "0 ARIANE 5 DEB (SYLDA)", "TLE_LINE1": "1 32390U 07063D   21339.53722847 -.00000202  00000-0 -16636-2 0  9999", "TLE_LINE2": "2 32390   5.9278  74.3607 7154821  67.5393   7.1989  2.26250058115177"}, {"CCSDS_OMM_VERS": "2.0", "COMMENT": "GENERATED VIA SPACE-TRACK.ORG API", "CREATION_DATE": "2021-12-06T02:57:56", "ORIGINATOR": "18 SPCS", "OBJECT_NAME": "H-2A R/B", "OBJECT_ID": "2009-002J", "CENTER_NAME": "EARTH", "REF_FRAME": "TEME", "TIME_SYSTEM": "UTC", "MEAN_ELEMENT_THEORY": "SGP4", "EPOCH": "2021-12-05T19:41:21.696864", "MEAN_MOTION": "14.87716647", "ECCENTRICITY": "0.00487100", "INCLINATION": "98.1076", "RA_OF_ASC_NODE": "268.6979", "ARG_OF_PERICENTER": "194.1097", "MEAN_ANOMALY": "165.8761", "EPHEMERIS_TYPE": "0", "CLASSIFICATION_TYPE": "U", "NORAD_CAT_ID": "33500", "ELEMENT_SET_NO": "999", "REV_AT_EPOCH": "69731", "BSTAR": "0.00005121600000", "MEAN_MOTION_DOT": "0.00000415", "MEAN_MOTION_DDOT": "0.0000000000000", "SEMIMAJOR_AXIS": "6983.209", "PERIOD": "96.793", "APOAPSIS": "639.089", "PERIAPSIS": "571.059", "OBJECT_TYPE": "ROCKET BODY", "RCS_SIZE": "LARGE", "COUNTRY_CODE": "JPN", "LAUNCH_DATE": "2009-01-23", "SITE": "TNSTA", "DECAY_DATE": null, "FILE": "3233515", "GP_ID": "191159923", "TLE_LINE0": "0 H-2A R/B", "TLE_LINE1": "1 33500U 09002J   21339.82039001  .00000415  00000-0  51216-4 0  9992", "TLE_LINE2": "2 33500  98.1076 268.6979 0048710 194.1097 165.8761 14.87716647697313"}, {"CCSDS_OMM_VERS": "2.0", "COMMENT": "GENERATED VIA SPACE-TRACK.ORG API", "CREATION_DATE": "2021-12-06T02:57:56", "ORIGINATOR": "18 SPCS", "OBJECT_NAME": "FALCON 9 R/B", "OBJECT_ID": "2010-066K", "CENTER_NAME": "EARTH", "REF_FRAME": "TEME", "TIME_SYSTEM": "UTC", "MEAN_ELEMENT_THEORY": "SGP4", "EPOCH": "2021-12-05T15:26:28.103712", "MEAN_MOTION": "7.00202211", "ECCENTRICITY": "0.42271110", "INCLINATION": "34.5270", "RA_OF_ASC_NODE": "48.8595", "ARG_OF_PERICENTER": "178.1253", "MEAN_ANOMALY": "184.2819", "EPHEMERIS_TYPE": "0", "CLASSIFICATION_TYPE": "U", "NORAD_CAT_ID": "37253", "ELEMENT_SET_NO": "999", "REV_AT_EPOCH": "27392", "BSTAR": "0.00053277000000", "MEAN_MOTION_DOT": "0.00006388", "MEAN_MOTION_DDOT": "0.0000000000000", "SEMIMAJOR_AXIS": "11541.250", "PERIOD": "205.655", "APOAPSIS": "10041.730", "PERIAPSIS": "284.501", "OBJECT_TYPE": "ROCKET BODY", "RCS_SIZE": "LARGE", "COUNTRY_CODE": "US", "LAUNCH_DATE": "2010-12-08", "SITE": "AFETR", "DECAY_DATE": null, "FILE": "3233515", "GP_ID": "191163520", "TLE_LINE0": "0 FALCON 9 R/B", "TLE_LINE1": "1 37253U 10066K   21339.64338083  .00006388  00000-0  53277-3 0  9998", "TLE_LINE2": "2 37253  34.5270  48.8595 4227111 178.1253 184.2819  7.00202211273928"}, {"CCSDS_OMM_VERS": "2.0", "COMMENT": "GENERATED VIA SPACE-TRACK.ORG API", "CREATION_DATE": "2021-12-06T02:57:56", "ORIGINATOR": "18 SPCS", "OBJECT_NAME": "H-2A DEB", "OBJECT_ID": "2012-025H", "CENTER_NAME": "EARTH", "REF_FRAME": "TEME", "TIME_SYSTEM": "UTC", "MEAN_ELEMENT_THEORY": "SGP4", "EPOCH": "2021-12-05T18:01:56.184672", "MEAN_MOTION": "14.76050330", "ECCENTRICITY": "0.00103200", "INCLINATION": "98.2283", "RA_OF_ASC_NODE": "47.6480", "ARG_OF_PERICENTER": "72.8402", "MEAN_ANOMALY": "287.3936", "EPHEMERIS_TYPE": "0", "CLASSIFICATION_TYPE": "U", "NORAD_CAT_ID": "38347", "ELEMENT_SET_NO": "999", "REV_AT_EPOCH": "51362", "BSTAR": "0.00007311500000", "MEAN_MOTION_DOT": "0.00000451", "MEAN_MOTION_DDOT": "0.0000000000000", "SEMIMAJOR_AXIS": "7019.956", "PERIOD": "97.558", "APOAPSIS": "649.066", "PERIAPSIS": "634.577", "OBJECT_TYPE": "DEBRIS", "RCS_SIZE": "LARGE", "COUNTRY_CODE": "JPN", "LAUNCH_DATE": "2012-05-17", "SITE": "TNSTA", "DECAY_DATE": null, "FILE": "3233515", "GP_ID": "191162112", "TLE_LINE0": "0 H-2A DEB", "TLE_LINE1": "1 38347U 12025H   21339.75134473  .00000451  00000-0  73115-4 0  9998", "TLE_LINE2": "2 38347  98.2283  47.6480 0010320  72.8402 287.3936 14.76050330513621"}, {"CCSDS_OMM_VERS": "2.0", "COMMENT": "GENERATED VIA SPACE-TRACK.ORG API", "CREATION_DATE": "2021-12-06T02:57:56", "ORIGINATOR": "18 SPCS", "OBJECT_NAME": "ARIANE 5 DEB (SYLDA)", "OBJECT_ID": "2012-035D", "CENTER_NAME": "EARTH", "REF_FRAME": "TEME", "TIME_SYSTEM": "UTC", "MEAN_ELEMENT_THEORY": "SGP4", "EPOCH": "2021-12-05T13:57:52.805088", "MEAN_MOTION": "3.11628616", "ECCENTRICITY": "0.66342880", "INCLINATION": "5.9786", "RA_OF_ASC_NODE": "91.4037", "ARG_OF_PERICENTER": "106.3707", "MEAN_ANOMALY": "331.4489", "EPHEMERIS_TYPE": "0", "CLASSIFICATION_TYPE": "U", "NORAD_CAT_ID": "38554", "ELEMENT_SET_NO": "999", "REV_AT_EPOCH": "9434", "BSTAR": "0.00181550000000", "MEAN_MOTION_DOT": "0.00005600", "MEAN_MOTION_DDOT": "0.0000000000000", "SEMIMAJOR_AXIS": "19799.017", "PERIOD": "462.089", "APOAPSIS": "26556.119", "PERIAPSIS": "285.644", "OBJECT_TYPE": "DEBRIS", "RCS_SIZE": "LARGE", "COUNTRY_CODE": "FR", "LAUNCH_DATE": "2012-07-05", "SITE": "FRGUI", "DECAY_DATE": null, "FILE": "3233515", "GP_ID": "191163638", "TLE_LINE0": "0 ARIANE 5 DEB (SYLDA)", "TLE_LINE1": "1 38554U 12035D   21339.58186117  .00005600  00000-0  18155-2 0  9994", "TLE_LINE2": "2 38554   5.9786  91.4037 6634288 106.3707 331.4489  3.11628616 94343"}, {"CCSDS_OMM_VERS": "2.0", "COMMENT": "GENERATED VIA SPACE-TRACK.ORG API", "CREATION_DATE": "2021-12-05T22:46:11", "ORIGINATOR": "18 SPCS", "OBJECT_NAME": "ARIANE 5 DEB (SYLDA)", "OBJECT_ID": "2012-051D", "CENTER_NAME": "EARTH", "REF_FRAME": "TEME", "TIME_SYSTEM": "UTC", "MEAN_ELEMENT_THEORY": "SGP4", "EPOCH": "2021-12-05T11:17:41.814240", "MEAN_MOTION": "6.06794527", "ECCENTRICITY": "0.47965520", "INCLINATION": "6.3837", "RA_OF_ASC_NODE": "54.5177", "ARG_OF_PERICENTER": "314.2282", "MEAN_ANOMALY": "15.1902", "EPHEMERIS_TYPE": "0", "CLASSIFICATION_TYPE": "U", "NORAD_CAT_ID": "38781", "ELEMENT_SET_NO": "999", "REV_AT_EPOCH": "15065", "BSTAR": "0.00357500000000", "MEAN_MOTION_DOT": "0.00100900", "MEAN_MOTION_DDOT": "0.0000000000000", "SEMIMAJOR_AXIS": "12697.184", "PERIOD": "237.313", "APOAPSIS": "12409.319", "PERIAPSIS": "228.779", "OBJECT_TYPE": "DEBRIS", "RCS_SIZE": "LARGE", "COUNTRY_CODE": "FR", "LAUNCH_DATE": "2012-09-28", "SITE": "FRGUI", "DECAY_DATE": null, "FILE": "3233309", "GP_ID": "191143645", "TLE_LINE0": "0 ARIANE 5 DEB (SYLDA)", "TLE_LINE1": "1 38781U 12051D   21339.47062285  .00100900  00000-0  35750-2 0  9990", "TLE_LINE2": "2 38781   6.3837  54.5177 4796552 314.2282  15.1902  6.06794527150656"}]